H1 CPF  1  HTS 2022 10 21 12  7941 larets           NONE
H2  0304206 5557    27944 2022 10 21  0  0  0 2022 10 26  0  0  0   180 1 1  0 0 0
H5  0.0560 
H9 
10 0 59874  83880.00000  0    5064171.886    4911590.505    -428187.209
10 0 59874  84060.00000  0    5225361.159    4671626.281     906768.772
10 0 59874  84240.00000  0    5188088.349    4260243.418    2208530.713
10 0 59874  84420.00000  0    4949530.514    3697687.789    3429467.536
10 0 59874  84600.00000  0    4514822.363    3009689.483    4524964.012
10 0 59874  84780.00000  0    3896964.241    2226286.205    5455061.727
10 0 59874  84960.00000  0    3116408.278    1380503.918    6185903.481
10 0 59874  85140.00000  0    2200343.802     506957.307    6690928.382
10 0 59874  85320.00000  0    1181727.191    -359563.372    6951786.716
10 0 59874  85500.00000  0      98090.667   -1185463.402    6958971.066
10 0 59874  85680.00000  0   -1009835.097   -1939634.873    6712144.865
10 0 59874  85860.00000  0   -2099637.003   -2594621.167    6220160.009
10 0 59874  86040.00000  0   -3128823.056   -3127615.902    5500771.190
10 0 59874  86220.00000  0   -4056478.974   -3521274.528    4580055.130
10 0 59875      0.00000  0   -4844920.077   -3764304.718    3491515.656
10 0 59875    180.00000  0   -5461257.688   -3851805.207    2274901.318
10 0 59875    360.00000  0   -5878818.023   -3785340.298     974769.153
10 0 59875    540.00000  0   -6078338.472   -3572736.917    -361167.765
10 0 59875    720.00000  0   -6048871.383   -3227607.519   -1683838.614
10 0 59875    900.00000  0   -5788339.882   -2768620.847   -2944681.453
10 0 59875   1080.00000  0   -5303711.119   -2218559.345   -4097481.598
10 0 59875   1260.00000  0   -4610788.117   -1603220.097   -5100097.539
10 0 59875   1440.00000  0   -3733637.492    -950218.500   -5916004.542
10 0 59875   1620.00000  0   -2703686.806    -287754.959   -6515597.395
10 0 59875   1800.00000  0   -1558543.128     356594.380   -6877211.788
10 0 59875   1980.00000  0    -340588.402     957008.708   -6987846.389
10 0 59875   2160.00000  0     904589.925    1490438.190   -6843581.662
10 0 59875   2340.00000  0    2129886.713    1937473.300   -6449702.174
10 0 59875   2520.00000  0    3288445.337    2283045.233   -5820515.470
10 0 59875   2700.00000  0    4335439.515    2516932.736   -4978862.723
10 0 59875   2880.00000  0    5229813.835    2634060.841   -3955337.595
10 0 59875   3060.00000  0    5935923.330    2634580.970   -2787217.827
10 0 59875   3240.00000  0    6424998.018    2523726.171   -1517136.795
10 0 59875   3420.00000  0    6676364.954    2311444.696    -191529.638
10 0 59875   3600.00000  0    6678356.084    2011823.875    1141088.649
10 0 59875   3780.00000  0    6428849.304    1642332.451    2431935.773
10 0 59875   3960.00000  0    5935420.799    1222923.297    3633787.948
10 0 59875   4140.00000  0    5215091.569     775039.669    4702739.293
10 0 59875   4320.00000  0    4293687.960     320581.357    5599811.603
10 0 59875   4500.00000  0    3204859.054    -119116.974    6292357.437
10 0 59875   4680.00000  0    1988798.139    -524246.826    6755207.922
10 0 59875   4860.00000  0     690736.040    -877384.029    6971541.747
10 0 59875   5040.00000  0    -640745.523   -1164217.177    6933462.522
10 0 59875   5220.00000  0   -1955520.168   -1374118.721    6642268.182
10 0 59875   5400.00000  0   -3203782.052   -1500538.800    6108415.118
10 0 59875   5580.00000  0   -4337920.179   -1541209.310    5351185.627
10 0 59875   5760.00000  0   -5314354.379   -1498157.427    4398049.236
10 0 59875   5940.00000  0   -6095255.082   -1377521.951    3283714.279
10 0 59875   6120.00000  0   -6650069.775   -1189175.203    2048897.404
10 0 59875   6300.00000  0   -6956794.386    -946168.387     738846.485
10 0 59875   6480.00000  0   -7002914.200    -664022.886    -598346.127
10 0 59875   6660.00000  0   -6785950.210    -359901.609   -1913561.921
10 0 59875   6840.00000  0   -6313581.396     -51705.623   -3158519.852
10 0 59875   7020.00000  0   -5603341.549     242853.919   -4287601.481
10 0 59875   7200.00000  0   -4681901.053     507162.393   -5259555.412
10 0 59875   7380.00000  0   -3583982.828     726537.339   -6039000.618
10 0 59875   7560.00000  0   -2350978.169     888950.439   -6597678.368
10 0 59875   7740.00000  0   -1029335.394     985604.866   -6915419.827
10 0 59875   7920.00000  0     331210.278    1011350.017   -6980815.173
10 0 59875   8100.00000  0    1679497.196     964918.484   -6791579.945
10 0 59875   8280.00000  0    2964840.786     848979.656   -6354626.341
10 0 59875   8460.00000  0    4138924.050     670008.662   -5685822.960
10 0 59875   8640.00000  0    5157608.472     437973.930   -4809452.782
10 0 59875   8820.00000  0    5982613.223     165855.065   -3757380.615
10 0 59875   9000.00000  0    6582998.021    -130992.362   -2567936.347
10 0 59875   9180.00000  0    6936383.093    -435600.136   -1284544.250
10 0 59875   9360.00000  0    7029844.172    -730243.850      45865.042
10 0 59875   9540.00000  0    6860427.866    -997349.474    1374595.960
10 0 59875   9720.00000  0    6435258.994   -1220405.445    2653009.974
10 0 59875   9900.00000  0    5771228.340   -1384830.500    3834348.599
10 0 59875  10080.00000  0    4894278.046   -1478751.059    4875468.907
10 0 59875  10260.00000  0    3838332.034   -1493650.702    5738419.799
10 0 59875  10440.00000  0    2643929.910   -1424857.661    6391802.659
10 0 59875  10620.00000  0    1356631.451   -1271854.719    6811873.348
10 0 59875  10800.00000  0      25261.985   -1038399.823    6983361.436
10 0 59875  10980.00000  0   -1299937.088    -732450.488    6899989.639
10 0 59875  11160.00000  0   -2569185.145    -365896.453    6564689.551
10 0 59875  11340.00000  0   -3735013.362      45892.847    5989517.115
10 0 59875  11520.00000  0   -4754041.347     484692.998    5195265.266
10 0 59875  11700.00000  0   -5588621.917     930201.727    4210767.137
10 0 59875  11880.00000  0   -6208287.041    1360942.012    3071897.186
10 0 59875  12060.00000  0   -6590929.410    1755255.226    1820293.891
10 0 59875  12240.00000  0   -6723664.898    2092338.337     501839.829
10 0 59875  12420.00000  0   -6603323.007    2353274.306    -835052.310
10 0 59875  12600.00000  0   -6236526.447    2521997.473   -2141272.563
10 0 59875  12780.00000  0   -5639356.071    2586143.296   -3368879.177
10 0 59875  12960.00000  0   -4836614.018    2537735.557   -4472911.972
10 0 59875  13140.00000  0   -3860731.046    2373672.019   -5413062.721
10 0 59875  13320.00000  0   -2750388.090    2095990.992   -6155133.670
10 0 59875  13500.00000  0   -1548929.847    1711912.260   -6672241.011
10 0 59875  13680.00000  0    -302638.755    1233651.971   -6945732.841
10 0 59875  13860.00000  0     941051.479     678023.874   -6965802.873
10 0 59875  14040.00000  0    2135343.730      65845.485   -6731807.581
10 0 59875  14220.00000  0    3235820.753    -578837.175   -6252277.989
10 0 59875  14400.00000  0    4202083.755   -1229680.107   -5544624.106
10 0 59875  14580.00000  0    4999237.332   -1859098.311   -4634542.397
10 0 59875  14760.00000  0    5599176.904   -2439418.456   -3555132.850
10 0 59875  14940.00000  0    5981624.053   -2944080.115   -2345735.394
10 0 59875  15120.00000  0    6134860.961   -3348832.226   -1050514.869
10 0 59875  15300.00000  0    6056122.363   -3632867.063     283157.612
10 0 59875  15480.00000  0    5751621.681   -3779834.763    1606464.615
10 0 59875  15660.00000  0    5236203.627   -3778683.607    2870972.298
10 0 59875  15840.00000  0    4532634.395   -3624275.300    4030442.721
10 0 59875  16020.00000  0    3670578.988   -3317747.982    5042544.112
10 0 59875  16200.00000  0    2685318.905   -2866614.534    5870395.414
10 0 59875  16380.00000  0    1616275.395   -2284590.318    6483883.859
10 0 59875  16560.00000  0     505412.804   -1591165.920    6860717.352
10 0 59875  16740.00000  0    -604411.583    -810945.249    6987189.477
10 0 59875  16920.00000  0   -1671088.569      27227.840    6858646.199
10 0 59875  17100.00000  0   -2654837.548     891325.856    6479651.319
10 0 59875  17280.00000  0   -3519681.238    1747346.369    5863847.687
10 0 59875  17460.00000  0   -4234770.785    2560636.707    5033513.191
10 0 59875  17640.00000  0   -4775518.931    3297294.767    4018811.391
10 0 59875  17820.00000  0   -5124492.992    3925591.473    2856741.267
10 0 59875  18000.00000  0   -5272024.308    4417354.284    1589814.041
10 0 59875  18180.00000  0   -5216502.380    4749248.200     264493.388
10 0 59875  18360.00000  0   -4964328.430    4903879.115   -1070545.293
10 0 59875  18540.00000  0   -4529527.944    4870661.085   -2366260.152
10 0 59875  18720.00000  0   -3933032.939    4646395.417   -3575110.045
10 0 59875  18900.00000  0   -3201676.817    4235525.606   -4652846.888
10 0 59875  19080.00000  0   -2366963.085    3650064.903   -5560148.324
10 0 59875  19260.00000  0   -1463683.520    2909213.845   -6264032.230
10 0 59875  19440.00000  0    -528448.863    2038687.621   -6739015.438
10 0 59875  19620.00000  0     401801.523    1069786.125   -6967978.654
10 0 59875  19800.00000  0    1291247.774      38252.719   -6942730.334
10 0 59875  19980.00000  0    2106553.464   -1017041.981   -6664267.870
10 0 59875  20160.00000  0    2818098.996   -2055550.796   -6142729.440
10 0 59875  20340.00000  0    3401049.827   -3036587.719   -5397047.776
10 0 59875  20520.00000  0    3836232.446   -3920915.622   -4454309.165
10 0 59875  20700.00000  0    4110780.515   -4672324.316   -3348812.352
10 0 59875  20880.00000  0    4218526.702   -5259130.883   -2120860.472
10 0 59875  21060.00000  0    4160125.085   -5655545.249    -815309.828
10 0 59875  21240.00000  0    3942885.157   -5842825.081     520080.889
10 0 59875  21420.00000  0    3580322.759   -5810155.763    1836430.873
10 0 59875  21600.00000  0    3091449.346   -5555205.839    3085570.496
10 0 59875  21780.00000  0    2499833.684   -5084326.294    4221839.717
99
